{"type": "FeatureCollection", "features": [ {"type": "Feature", "properties": {"norad_id": 35744, "name": "IRIDIUM 33 DEB", "group": "iridium-33-debris", "lat": -83.48584267550122, "lon": 177.14272904162192, "alt_km": 665.694074399812, "timestamp": "2025-12-18T07:01:54.974607+00:00", "meta": {"OBJECT_NAME": "IRIDIUM 33 DEB", "OBJECT_ID": "1997-051RX", "EPOCH": "2025-12-17T08:36:38.508192", "MEAN_MOTION": 14.71057485, "ECCENTRICITY": 0.00208183, "INCLINATION": 86.3286, "RA_OF_ASC_NODE": 323.3486, "ARG_OF_PERICENTER": 175.4517, "MEAN_ANOMALY": 184.6893, "EPHEMERIS_TYPE": 0, "CLASSIFICATION_TYPE": "U", "NORAD_CAT_ID": 35744, "ELEMENT_SET_NO": 999, "REV_AT_EPOCH": 87399, "BSTAR": 0.00086970493, "MEAN_MOTION_DOT": 5.382e-05, "MEAN_MOTION_DDOT": 0}, "tle": {"line1": "1 35744U 97051RX  25351.35877903  .00005382  00000+0  86970-3 0  9993", "line2": "2 35744  86.3286 323.3486 0020818 175.4517 184.6893 14.71057485873993"}}, "geometry": {"type": "Point", "coordinates": [177.14272904162192, -83.48584267550122]}}, {"type": "Feature", "properties": {"norad_id": 35797, "name": "IRIDIUM 33 DEB", "group": "iridium-33-debris", "lat": -48.85988795686134, "lon": 151.62856668019728, "alt_km": 628.5249643459028, "timestamp": "2025-12-18T07:01:54.974617+00:00", "meta": {"OBJECT_NAME": "IRIDIUM 33 DEB", "OBJECT_ID": "1997-051SF", "EPOCH": "2025-12-12T05:51:50.415264", "MEAN_MOTION": 14.82743783, "ECCENTRICITY": 0.00133704, "INCLINATION": 86.3362, "RA_OF_ASC_NODE": 330.2007, "ARG_OF_PERICENTER": 149.5686, "MEAN_ANOMALY": 210.6315, "EPHEMERIS_TYPE": 0, "CLASSIFICATION_TYPE": "U", "NORAD_CAT_ID": 35797, "ELEMENT_SET_NO": 999, "REV_AT_EPOCH": 87333, "BSTAR": 0.0026694194, "MEAN_MOTION_DOT": 0.00021655, "MEAN_MOTION_DDOT": 0}, "tle": {"line1": "1 35797U 97051SF  25346.24433351  .00021655  00000+0  26694-2 0  9995", "line2": "2 35797  86.3362 330.2007 0013370 149.5686 210.6315 14.82743783873338"}}, "geometry": {"type": "Point", "coordinates": [151.62856668019728, -48.85988795686134]}}, {"type": "Feature", "properties": {"norad_id": 35806, "name": "IRIDIUM 33 DEB", "group": "iridium-33-debris", "lat": 25.196057657068827, "lon": 19.90729330871665, "alt_km": 691.4435987707202, "timestamp": "2025-12-18T07:01:54.974628+00:00", "meta": {"OBJECT_NAME": "IRIDIUM 33 DEB", "OBJECT_ID": "1997-051SQ", "EPOCH": "2025-12-16T08:46:37.248096", "MEAN_MOTION": 14.57379748, "ECCENTRICITY": 0.00158634, "INCLINATION": 86.3444, "RA_OF_ASC_NODE": 19.032, "ARG_OF_PERICENTER": 64.1996, "MEAN_ANOMALY": 296.0847, "EPHEMERIS_TYPE": 0, "CLASSIFICATION_TYPE": "U", "NORAD_CAT_ID": 35806, "ELEMENT_SET_NO": 999, "REV_AT_EPOCH": 86377, "BSTAR": 0.00073764812, "MEAN_MOTION_DOT": 3.369e-05, "MEAN_MOTION_DDOT": 0}, "tle": {"line1": "1 35806U 97051SQ  25350.36570889  .00003369  00000+0  73765-3 0  9996", "line2": "2 35806  86.3444  19.0320 0015863  64.1996 296.0847 14.57379748863778"}}, "geometry": {"type": "Point", "coordinates": [19.90729330871665, 25.196057657068827]}}, {"type": "Feature", "properties": {"norad_id": 35809, "name": "IRIDIUM 33 DEB", "group": "iridium-33-debris", "lat": 37.622914732189905, "lon": -24.341917959878142, "alt_km": 646.4370778545926, "timestamp": "2025-12-18T07:01:54.974653+00:00", "meta": {"OBJECT_NAME": "IRIDIUM 33 DEB", "OBJECT_ID": "1997-051ST", "EPOCH": "2025-12-10T16:35:56.421600", "MEAN_MOTION": 14.75629145, "ECCENTRICITY": 0.00097103, "INCLINATION": 86.329, "RA_OF_ASC_NODE": 336.2813, "ARG_OF_PERICENTER": 251.0565, "MEAN_ANOMALY": 108.9602, "EPHEMERIS_TYPE": 0, "CLASSIFICATION_TYPE": "U", "NORAD_CAT_ID": 35809, "ELEMENT_SET_NO": 999, "REV_AT_EPOCH": 86777, "BSTAR": 0.0026432017, "MEAN_MOTION_DOT": 0.00018102, "MEAN_MOTION_DDOT": 0}, "tle": {"line1": "1 35809U 97051ST  25344.69162525  .00018102  00000+0  26432-2 0  9991", "line2": "2 35809  86.3290 336.2813 0009710 251.0565 108.9602 14.75629145867777"}}, "geometry": {"type": "Point", "coordinates": [-24.341917959878142, 37.622914732189905]}}, {"type": "Feature", "properties": {"norad_id": 35846, "name": "IRIDIUM 33 DEB", "group": "iridium-33-debris", "lat": -67.63866802307646, "lon": -114.66379171268281, "alt_km": 756.6686093744784, "timestamp": "2025-12-18T07:01:54.974664+00:00", "meta": {"OBJECT_NAME": "IRIDIUM 33 DEB", "OBJECT_ID": "1997-051SW", "EPOCH": "2025-12-17T14:54:42.096384", "MEAN_MOTION": 14.4317707, "ECCENTRICITY": 0.00193544, "INCLINATION": 86.3749, "RA_OF_ASC_NODE": 56.7579, "ARG_OF_PERICENTER": 154.5428, "MEAN_ANOMALY": 205.673, "EPHEMERIS_TYPE": 0, "CLASSIFICATION_TYPE": "U", "NORAD_CAT_ID": 35846, "ELEMENT_SET_NO": 999, "REV_AT_EPOCH": 71399, "BSTAR": 0.00041713484, "MEAN_MOTION_DOT": 1.424e-05, "MEAN_MOTION_DDOT": 0}, "tle": {"line1": "1 35846U 97051SW  25351.62132056  .00001424  00000+0  41713-3 0  9998", "line2": "2 35846  86.3749  56.7579 0019354 154.5428 205.6730 14.43177070713991"}}, "geometry": {"type": "Point", "coordinates": [-114.66379171268281, -67.63866802307646]}}, {"type": "Feature", "properties": {"norad_id": 35848, "name": "IRIDIUM 33 DEB", "group": "iridium-33-debris", "lat": 47.89043289436249, "lon": 17.63264630167931, "alt_km": 632.117355895206, "timestamp": "2025-12-18T07:01:54.974674+00:00", "meta": {"OBJECT_NAME": "IRIDIUM 33 DEB", "OBJECT_ID": "1997-051SY", "EPOCH": "2025-12-16T19:05:07.807200", "MEAN_MOTION": 14.78723023, "ECCENTRICITY": 0.00083075, "INCLINATION": 86.3897, "RA_OF_ASC_NODE": 14.3007, "ARG_OF_PERICENTER": 174.3439, "MEAN_ANOMALY": 185.7876, "EPHEMERIS_TYPE": 0, "CLASSIFICATION_TYPE": "U", "NORAD_CAT_ID": 35848, "ELEMENT_SET_NO": 999, "REV_AT_EPOCH": 66750, "BSTAR": 0.0011327955, "MEAN_MOTION_DOT": 8.343e-05, "MEAN_MOTION_DDOT": 0}, "tle": {"line1": "1 35848U 97051SY  25350.79522925  .00008343  00000+0  11328-2 0  9990", "line2": "2 35848  86.3897  14.3007 0008307 174.3439 185.7876 14.78723023667508"}}, "geometry": {"type": "Point", "coordinates": [17.63264630167931, 47.89043289436249]}}, {"type": "Feature", "properties": {"norad_id": 35850, "name": "IRIDIUM 33 DEB", "group": "iridium-33-debris", "lat": 16.93468479250228, "lon": -17.165985543823734, "alt_km": 639.1649026737732, "timestamp": "2025-12-18T07:01:54.974685+00:00", "meta": {"OBJECT_NAME": "IRIDIUM 33 DEB", "OBJECT_ID": "1997-051TA", "EPOCH": "2025-12-17T06:35:50.424288", "MEAN_MOTION": 14.78922738, "ECCENTRICITY": 0.00098245, "INCLINATION": 86.3492, "RA_OF_ASC_NODE": 342.1832, "ARG_OF_PERICENTER": 168.4252, "MEAN_ANOMALY": 191.7196, "EPHEMERIS_TYPE": 0, "CLASSIFICATION_TYPE": "U", "NORAD_CAT_ID": 35850, "ELEMENT_SET_NO": 999, "REV_AT_EPOCH": 71424, "BSTAR": 0.0012101447, "MEAN_MOTION_DOT": 8.956e-05, "MEAN_MOTION_DDOT": 0}, "tle": {"line1": "1 35850U 97051TA  25351.27488917  .00008956  00000+0  12101-2 0  9999", "line2": "2 35850  86.3492 342.1832 0009824 168.4252 191.7196 14.78922738714242"}}, "geometry": {"type": "Point", "coordinates": [-17.165985543823734, 16.93468479250228]}}, {"type": "Feature", "properties": {"norad_id": 35915, "name": "IRIDIUM 33 DEB", "group": "iridium-33-debris", "lat": -4.860603613805586, "lon": -19.891517736802616, "alt_km": 638.1092815469556, "timestamp": "2025-12-18T07:01:54.974695+00:00", "meta": {"OBJECT_NAME": "IRIDIUM 33 DEB", "OBJECT_ID": "1997-051TY", "EPOCH": "2025-12-15T17:25:35.441760", "MEAN_MOTION": 14.80816607, "ECCENTRICITY": 0.00112544, "INCLINATION": 86.3436, "RA_OF_ASC_NODE": 341.593, "ARG_OF_PERICENTER": 174.6839, "MEAN_ANOMALY": 185.4504, "EPHEMERIS_TYPE": 0, "CLASSIFICATION_TYPE": "U", "NORAD_CAT_ID": 35915, "ELEMENT_SET_NO": 999, "REV_AT_EPOCH": 8130, "BSTAR": 0.0011378054, "MEAN_MOTION_DOT": 8.81e-05, "MEAN_MOTION_DDOT": 0}, "tle": {"line1": "1 35915U 97051TY  25349.72610465  .00008810  00000+0  11378-2 0  9997", "line2": "2 35915  86.3436 341.5930 0011254 174.6839 185.4504 14.80816607 81301"}}, "geometry": {"type": "Point", "coordinates": [-19.891517736802616, -4.860603613805586]}}, {"type": "Feature", "properties": {"norad_id": 35918, "name": "IRIDIUM 33 DEB", "group": "iridium-33-debris", "lat": -78.71165154183085, "lon": 55.05415660965627, "alt_km": 741.4149901471201, "timestamp": "2025-12-18T07:01:54.974706+00:00", "meta": {"OBJECT_NAME": "IRIDIUM 33 DEB", "OBJECT_ID": "1997-051UB", "EPOCH": "2025-12-16T12:39:39.180384", "MEAN_MOTION": 14.5127814, "ECCENTRICITY": 0.0027979, "INCLINATION": 86.4012, "RA_OF_ASC_NODE": 74.1902, "ARG_OF_PERICENTER": 157.398, "MEAN_ANOMALY": 265.1439, "EPHEMERIS_TYPE": 0, "CLASSIFICATION_TYPE": "U", "NORAD_CAT_ID": 35918, "ELEMENT_SET_NO": 999, "REV_AT_EPOCH": 85262, "BSTAR": 0.00077323104, "MEAN_MOTION_DOT": 3.111e-05, "MEAN_MOTION_DDOT": 0}, "tle": {"line1": "1 35918U 97051UB  25350.52753681  .00003111  00000+0  77323-3 0  9990", "line2": "2 35918  86.4012  74.1902 0027979 157.3980 265.1439 14.51278140852625"}}, "geometry": {"type": "Point", "coordinates": [55.05415660965627, -78.71165154183085]}}, {"type": "Feature", "properties": {"norad_id": 35929, "name": "IRIDIUM 33 DEB", "group": "iridium-33-debris", "lat": -23.936338020838036, "lon": -51.63518908430031, "alt_km": 555.2209666673061, "timestamp": "2025-12-18T07:01:54.974716+00:00", "meta": {"OBJECT_NAME": "IRIDIUM 33 DEB", "OBJECT_ID": "1997-051UN", "EPOCH": "2025-12-17T15:09:24.292224", "MEAN_MOTION": 15.02734455, "ECCENTRICITY": 0.00173872, "INCLINATION": 86.3329, "RA_OF_ASC_NODE": 310.3099, "ARG_OF_PERICENTER": 21.8082, "MEAN_ANOMALY": 338.3888, "EPHEMERIS_TYPE": 0, "CLASSIFICATION_TYPE": "U", "NORAD_CAT_ID": 35929, "ELEMENT_SET_NO": 999, "REV_AT_EPOCH": 87853, "BSTAR": 0.0021011634, "MEAN_MOTION_DOT": 0.00028257, "MEAN_MOTION_DDOT": 0}, "tle": {"line1": "1 35929U 97051UN  25351.63153116  .00028257  00000+0  21012-2 0  9993", "line2": "2 35929  86.3329 310.3099 0017387  21.8082 338.3888 15.02734455878531"}}, "geometry": {"type": "Point", "coordinates": [-51.63518908430031, -23.936338020838036]}}]}